start=new Date('2021-10-11T00:00:00.000Z').valueOf();
sats=[{"RA_OF_ASC_NODE":"112.6658","SEMIMAJOR_AXIS":"6925.343","SITE":"AFETR","MEAN_MOTION_DOT":"-0.00000430","PERIAPSIS":"545.947","NORAD_CAT_ID":"48295","MEAN_ELEMENT_THEORY":"SGP4","BSTAR":"-0.00000998250000","APOAPSIS":"548.468","PERIOD":"95.592","MEAN_ANOMALY":"277.6616","OBJECT_ID":"2021-036V","TLE_LINE1":"1 48295U 21036V   21283.91676922 -.00000430  00000-0 -99825-5 0  9995","OBJECT_NAME":"STARLINK-2535","TIME_SYSTEM":"UTC","ARG_OF_PERICENTER":"82.4580","GP_ID":"186840417","LAUNCH_DATE":"2021-04-29","EPOCH":"2021-10-10T22:00:08.860608","RCS_SIZE":"LARGE","ECCENTRICITY":"0.00018200","EPHEMERIS_TYPE":"0","INCLINATION":"53.0555","CLASSIFICATION_TYPE":"U","COUNTRY_CODE":"US","DECAY_DATE":null,"FILE":"3155694","REV_AT_EPOCH":"2553","TLE_LINE2":"2 48295  53.0555 112.6658 0001820  82.4580 277.6616 15.06401867 25538","OBJECT_TYPE":"PAYLOAD","CENTER_NAME":"EARTH","MEAN_MOTION":"15.06401867","REF_FRAME":"TEME","ELEMENT_SET_NO":"999","MEAN_MOTION_DDOT":"0.0000000000000"},{"MEAN_ELEMENT_THEORY":"SGP4","BSTAR":"-0.00000964310000","APOAPSIS":"548.319","NORAD_CAT_ID":"48296","PERIAPSIS":"546.128","RA_OF_ASC_NODE":"112.9771","MEAN_MOTION_DOT":"-0.00000425","SITE":"AFETR","SEMIMAJOR_AXIS":"6925.358","GP_ID":"186840669","LAUNCH_DATE":"2021-04-29","OBJECT_NAME":"STARLINK-2546","ARG_OF_PERICENTER":"83.8917","TIME_SYSTEM":"UTC","OBJECT_ID":"2021-036W","TLE_LINE1":"1 48296U 21036W   21283.84674150 -.00000425  00000-0 -96431-5 0  9993","MEAN_ANOMALY":"276.2252","PERIOD":"95.592","COUNTRY_CODE":"US","INCLINATION":"53.0556","CLASSIFICATION_TYPE":"U","ECCENTRICITY":"0.00015820","EPHEMERIS_TYPE":"0","RCS_SIZE":"LARGE","EPOCH":"2021-10-10T20:19:18.465600","REF_FRAME":"TEME","MEAN_MOTION_DDOT":"0.0000000000000","ELEMENT_SET_NO":"999","OBJECT_TYPE":"PAYLOAD","CENTER_NAME":"EARTH","MEAN_MOTION":"15.06396853","TLE_LINE2":"2 48296  53.0556 112.9771 0001582  83.8917 276.2252 15.06396853 25521","DECAY_DATE":null,"FILE":"3155694","REV_AT_EPOCH":"2552"},{"RA_OF_ASC_NODE":"112.9950","SITE":"AFETR","MEAN_MOTION_DOT":"-0.00000755","SEMIMAJOR_AXIS":"6925.353","PERIAPSIS":"545.904","NORAD_CAT_ID":"48297","MEAN_ELEMENT_THEORY":"SGP4","BSTAR":"-0.00003180900000","APOAPSIS":"548.532","PERIOD":"95.592","MEAN_ANOMALY":"300.6597","TLE_LINE1":"1 48297U 21036X   21283.84305344 -.00000755  00000-0 -31809-4 0  9993","OBJECT_ID":"2021-036X","OBJECT_NAME":"STARLINK-2544","TIME_SYSTEM":"UTC","ARG_OF_PERICENTER":"59.4579","GP_ID":"186840920","LAUNCH_DATE":"2021-04-29","EPOCH":"2021-10-10T20:13:59.817216","RCS_SIZE":"LARGE","ECCENTRICITY":"0.00018970","EPHEMERIS_TYPE":"0","CLASSIFICATION_TYPE":"U","INCLINATION":"53.0560","COUNTRY_CODE":"US","FILE":"3155694","DECAY_DATE":null,"REV_AT_EPOCH":"2552","TLE_LINE2":"2 48297  53.0560 112.9950 0001897  59.4579 300.6597 15.06398566 25525","CENTER_NAME":"EARTH","OBJECT_TYPE":"PAYLOAD","MEAN_MOTION":"15.06398566","REF_FRAME":"TEME","ELEMENT_SET_NO":"999","MEAN_MOTION_DDOT":"0.0000000000000"},{"PERIAPSIS":"546.145","MEAN_MOTION_DOT":"-0.00000681","SITE":"AFETR","SEMIMAJOR_AXIS":"6925.349","RA_OF_ASC_NODE":"112.7125","APOAPSIS":"548.282","BSTAR":"-0.00002682800000","MEAN_ELEMENT_THEORY":"SGP4","NORAD_CAT_ID":"48298","OBJECT_ID":"2021-036Y","TLE_LINE1":"1 48298U 21036Y   21283.90571542 -.00000681  00000-0 -26828-4 0  9999","MEAN_ANOMALY":"273.7835","PERIOD":"95.592","LAUNCH_DATE":"2021-04-29","GP_ID":"186839668","TIME_SYSTEM":"UTC","ARG_OF_PERICENTER":"86.3331","OBJECT_NAME":"STARLINK-2559","EPHEMERIS_TYPE":"0","ECCENTRICITY":"0.00015430","EPOCH":"2021-10-10T21:44:13.812288","RCS_SIZE":"LARGE","COUNTRY_CODE":"US","CLASSIFICATION_TYPE":"U","INCLINATION":"53.0558","TLE_LINE2":"2 48298  53.0558 112.7125 0001543  86.3331 273.7835 15.06399889 25533","REV_AT_EPOCH":"2553","FILE":"3155694","DECAY_DATE":null,"ELEMENT_SET_NO":"999","MEAN_MOTION_DDOT":"0.0000000000000","REF_FRAME":"TEME","MEAN_MOTION":"15.06399889","OBJECT_TYPE":"PAYLOAD","CENTER_NAME":"EARTH"},{"TLE_LINE1":"1 48299U 21036Z   21283.83567466  .00000438  00000-0  48310-4 0  9990","OBJECT_ID":"2021-036Z","MEAN_ANOMALY":"277.4455","PERIOD":"95.592","LAUNCH_DATE":"2021-04-29","GP_ID":"186839918","ARG_OF_PERICENTER":"82.6723","TIME_SYSTEM":"UTC","OBJECT_NAME":"STARLINK-2557","PERIAPSIS":"546.075","MEAN_MOTION_DOT":"0.00000438","SITE":"AFETR","SEMIMAJOR_AXIS":"6925.359","RA_OF_ASC_NODE":"113.0090","BSTAR":"0.00004831000000","APOAPSIS":"548.373","MEAN_ELEMENT_THEORY":"SGP4","NORAD_CAT_ID":"48299","TLE_LINE2":"2 48299  53.0568 113.0090 0001659  82.6723 277.4455 15.06396471 25524","REV_AT_EPOCH":"2552","FILE":"3155694","DECAY_DATE":null,"MEAN_MOTION_DDOT":"0.0000000000000","ELEMENT_SET_NO":"999","REF_FRAME":"TEME","MEAN_MOTION":"15.06396471","CENTER_NAME":"EARTH","OBJECT_TYPE":"PAYLOAD","ECCENTRICITY":"0.00016590","EPHEMERIS_TYPE":"0","RCS_SIZE":"LARGE","EPOCH":"2021-10-10T20:03:22.290624","COUNTRY_CODE":"US","INCLINATION":"53.0568","CLASSIFICATION_TYPE":"U"},{"COUNTRY_CODE":"US","INCLINATION":"53.0601","CLASSIFICATION_TYPE":"U","ECCENTRICITY":"0.00021330","EPHEMERIS_TYPE":"0","EPOCH":"2021-10-10T19:51:25.536096","RCS_SIZE":"LARGE","ELEMENT_SET_NO":"999","MEAN_MOTION_DDOT":"0.0000000000000","REF_FRAME":"TEME","MEAN_MOTION":"15.06410636","OBJECT_TYPE":"PAYLOAD","CENTER_NAME":"EARTH","TLE_LINE2":"2 48300  53.0601 123.0523 0002133  78.5727 281.5501 15.06410636 25385","REV_AT_EPOCH":"2538","DECAY_DATE":null,"FILE":"3155694","BSTAR":"0.00005799900000","APOAPSIS":"548.658","MEAN_ELEMENT_THEORY":"SGP4","NORAD_CAT_ID":"48300","PERIAPSIS":"545.704","SITE":"AFETR","MEAN_MOTION_DOT":"0.00000582","SEMIMAJOR_AXIS":"6925.316","RA_OF_ASC_NODE":"123.0523","LAUNCH_DATE":"2021-04-29","GP_ID":"186841169","TIME_SYSTEM":"UTC","ARG_OF_PERICENTER":"78.5727","OBJECT_NAME":"STARLINK-2538","TLE_LINE1":"1 48300U 21036AA  21283.82737889  .00000582  00000-0  57999-4 0  9993","OBJECT_ID":"2021-036AA","MEAN_ANOMALY":"281.5501","PERIOD":"95.591"},{"REV_AT_EPOCH":"2538","DECAY_DATE":null,"FILE":"3155694","TLE_LINE2":"2 48301  53.0531 122.7733 0001904  74.5721 285.5478 15.06399925 25386","MEAN_MOTION":"15.06399925","CENTER_NAME":"EARTH","OBJECT_TYPE":"PAYLOAD","ELEMENT_SET_NO":"999","MEAN_MOTION_DDOT":"0.0000000000000","REF_FRAME":"TEME","EPOCH":"2021-10-10T21:21:40.016736","RCS_SIZE":"LARGE","EPHEMERIS_TYPE":"0","ECCENTRICITY":"0.00019040","INCLINATION":"53.0531","CLASSIFICATION_TYPE":"U","COUNTRY_CODE":"US","MEAN_ANOMALY":"285.5478","PERIOD":"95.592","TLE_LINE1":"1 48301U 21036AB  21283.89004649 -.00000989  00000-0 -47491-4 0  9991","OBJECT_ID":"2021-036AB","TIME_SYSTEM":"UTC","ARG_OF_PERICENTER":"74.5721","OBJECT_NAME":"STARLINK-2537","LAUNCH_DATE":"2021-04-29","GP_ID":"186841420","SITE":"AFETR","SEMIMAJOR_AXIS":"6925.349","MEAN_MOTION_DOT":"-0.00000989","RA_OF_ASC_NODE":"122.7733","PERIAPSIS":"545.895","NORAD_CAT_ID":"48301","BSTAR":"-0.00004749100000","APOAPSIS":"548.532","MEAN_ELEMENT_THEORY":"SGP4"},{"ELEMENT_SET_NO":"999","MEAN_MOTION_DDOT":"0.0000000000000","REF_FRAME":"TEME","MEAN_MOTION":"15.06367759","CENTER_NAME":"EARTH","OBJECT_TYPE":"PAYLOAD","TLE_LINE2":"2 48302  53.0554 123.0811 0001254  66.5177 293.5944 15.06367759 25373","REV_AT_EPOCH":"2537","DECAY_DATE":null,"FILE":"3155694","COUNTRY_CODE":"US","INCLINATION":"53.0554","CLASSIFICATION_TYPE":"U","EPHEMERIS_TYPE":"0","ECCENTRICITY":"0.00012540","EPOCH":"2021-10-10T19:40:50.827872","RCS_SIZE":"LARGE","LAUNCH_DATE":"2021-04-29","GP_ID":"186840168","TIME_SYSTEM":"UTC","ARG_OF_PERICENTER":"66.5177","OBJECT_NAME":"STARLINK-2556","TLE_LINE1":"1 48302U 21036AC  21283.82003273  .00003066  00000-0  22481-3 0  9995","OBJECT_ID":"2021-036AC","MEAN_ANOMALY":"293.5944","PERIOD":"95.594","APOAPSIS":"548.181","BSTAR":"0.00022481000000","MEAN_ELEMENT_THEORY":"SGP4","NORAD_CAT_ID":"48302","PERIAPSIS":"546.444","SITE":"AFETR","MEAN_MOTION_DOT":"0.00003066","SEMIMAJOR_AXIS":"6925.447","RA_OF_ASC_NODE":"123.0811"},{"NORAD_CAT_ID":"48303","MEAN_ELEMENT_THEORY":"SGP4","BSTAR":"-0.00003176500000","APOAPSIS":"548.713","RA_OF_ASC_NODE":"123.1000","SEMIMAJOR_AXIS":"6925.373","SITE":"AFETR","MEAN_MOTION_DOT":"-0.00000755","PERIAPSIS":"545.763","OBJECT_NAME":"STARLINK-2530","TIME_SYSTEM":"UTC","ARG_OF_PERICENTER":"78.2766","GP_ID":"186840418","LAUNCH_DATE":"2021-04-29","PERIOD":"95.593","MEAN_ANOMALY":"281.8462","TLE_LINE1":"1 48303U 21036AD  21283.81632615 -.00000755  00000-0 -31765-4 0  9993","OBJECT_ID":"2021-036AD","INCLINATION":"53.0533","CLASSIFICATION_TYPE":"U","COUNTRY_CODE":"US","EPOCH":"2021-10-10T19:35:30.579360","RCS_SIZE":"LARGE","ECCENTRICITY":"0.00021300","EPHEMERIS_TYPE":"0","CENTER_NAME":"EARTH","OBJECT_TYPE":"PAYLOAD","MEAN_MOTION":"15.06392034","REF_FRAME":"TEME","ELEMENT_SET_NO":"999","MEAN_MOTION_DDOT":"0.0000000000000","DECAY_DATE":null,"FILE":"3155694","REV_AT_EPOCH":"2537","TLE_LINE2":"2 48303  53.0533 123.1000 0002130  78.2766 281.8462 15.06392034 25379"},{"REV_AT_EPOCH":"2538","FILE":"3155694","DECAY_DATE":null,"TLE_LINE2":"2 48304  53.0533 122.8207 0002012  72.4364 287.6845 15.06400106 25384","MEAN_MOTION":"15.06400106","CENTER_NAME":"EARTH","OBJECT_TYPE":"PAYLOAD","ELEMENT_SET_NO":"999","MEAN_MOTION_DDOT":"0.0000000000000","REF_FRAME":"TEME","EPOCH":"2021-10-10T21:05:43.435680","RCS_SIZE":"LARGE","EPHEMERIS_TYPE":"0","ECCENTRICITY":"0.00020120","CLASSIFICATION_TYPE":"U","INCLINATION":"53.0533","COUNTRY_CODE":"US","MEAN_ANOMALY":"287.6845","PERIOD":"95.592","TLE_LINE1":"1 48304U 21036AE  21283.87897495  .00000051  00000-0  22305-4 0  9996","OBJECT_ID":"2021-036AE","TIME_SYSTEM":"UTC","ARG_OF_PERICENTER":"72.4364","OBJECT_NAME":"STARLINK-2524","LAUNCH_DATE":"2021-04-29","GP_ID":"186840670","MEAN_MOTION_DOT":"0.00000051","SITE":"AFETR","SEMIMAJOR_AXIS":"6925.348","RA_OF_ASC_NODE":"122.8207","PERIAPSIS":"545.820","NORAD_CAT_ID":"48304","BSTAR":"0.00002230500000","APOAPSIS":"548.607","MEAN_ELEMENT_THEORY":"SGP4"}];
